{"type": "FeatureCollection", "features": [ {"type": "Feature", "properties": {"norad_id": 33619, "name": "FENGYUN 1C DEB", "group": "fengyun-1c-debris", "lat": 36.067269919918765, "lon": 47.500468214843984, "alt_km": 795.725816989795, "timestamp": "2025-12-10T14:53:37.377662+00:00", "meta": {"OBJECT_NAME": "FENGYUN 1C DEB", "OBJECT_ID": "1999-025DDC", "EPOCH": "2025-12-07T22:20:52.089216", "MEAN_MOTION": 14.17469788, "ECCENTRICITY": 0.00512447, "INCLINATION": 98.8618, "RA_OF_ASC_NODE": 51.3437, "ARG_OF_PERICENTER": 60.1426, "MEAN_ANOMALY": 300.4828, "EPHEMERIS_TYPE": 0, "CLASSIFICATION_TYPE": "U", "NORAD_CAT_ID": 33619, "ELEMENT_SET_NO": 999, "REV_AT_EPOCH": 63556, "BSTAR": 0.0017642375, "MEAN_MOTION_DOT": 3.58e-05, "MEAN_MOTION_DDOT": 0}, "tle": {"line1": "1 33619U 99025DDC 25341.93115844  .00003580  00000+0  17642-2 0  9994", "line2": "2 33619  98.8618  51.3437 0051244  60.1426 300.4828 14.17469788635567"}}, "geometry": {"type": "Point", "coordinates": [47.500468214843984, 36.067269919918765]}}, {"type": "Feature", "properties": {"norad_id": 33621, "name": "FENGYUN 1C DEB", "group": "fengyun-1c-debris", "lat": -69.51761764099972, "lon": -141.9235029564322, "alt_km": 633.201864511997, "timestamp": "2025-12-10T14:53:37.377671+00:00", "meta": {"OBJECT_NAME": "FENGYUN 1C DEB", "OBJECT_ID": "1999-025DDE", "EPOCH": "2025-12-09T20:36:12.899232", "MEAN_MOTION": 14.19479332, "ECCENTRICITY": 0.02848034, "INCLINATION": 98.1398, "RA_OF_ASC_NODE": 194.8456, "ARG_OF_PERICENTER": 302.8957, "MEAN_ANOMALY": 54.511, "EPHEMERIS_TYPE": 0, "CLASSIFICATION_TYPE": "U", "NORAD_CAT_ID": 33621, "ELEMENT_SET_NO": 999, "REV_AT_EPOCH": 64203, "BSTAR": 0.0011496429, "MEAN_MOTION_DOT": 3.588e-05, "MEAN_MOTION_DDOT": 0}, "tle": {"line1": "1 33621U 99025DDE 25343.85848263  .00003588  00000+0  11496-2 0  9997", "line2": "2 33621  98.1398 194.8456 0284803 302.8957  54.5110 14.19479332642035"}}, "geometry": {"type": "Point", "coordinates": [-141.9235029564322, -69.51761764099972]}}, {"type": "Feature", "properties": {"norad_id": 33625, "name": "FENGYUN 1C DEB", "group": "fengyun-1c-debris", "lat": -34.85702164960052, "lon": -90.88185817306162, "alt_km": 647.8672188625869, "timestamp": "2025-12-10T14:53:37.377680+00:00", "meta": {"OBJECT_NAME": "FENGYUN 1C DEB", "OBJECT_ID": "1999-025DDJ", "EPOCH": "2025-12-01T01:24:31.444992", "MEAN_MOTION": 14.60592393, "ECCENTRICITY": 0.02269611, "INCLINATION": 98.6203, "RA_OF_ASC_NODE": 85.2252, "ARG_OF_PERICENTER": 171.2387, "MEAN_ANOMALY": 189.288, "EPHEMERIS_TYPE": 0, "CLASSIFICATION_TYPE": "U", "NORAD_CAT_ID": 33625, "ELEMENT_SET_NO": 999, "REV_AT_EPOCH": 61220, "BSTAR": 0.0017865562, "MEAN_MOTION_DOT": 0.00012473, "MEAN_MOTION_DDOT": 0}, "tle": {"line1": "1 33625U 99025DDJ 25335.05869728  .00012473  00000+0  17866-2 0  9993", "line2": "2 33625  98.6203  85.2252 0226961 171.2387 189.2880 14.60592393612207"}}, "geometry": {"type": "Point", "coordinates": [-90.88185817306162, -34.85702164960052]}}, {"type": "Feature", "properties": {"norad_id": 33630, "name": "FENGYUN 1C DEB", "group": "fengyun-1c-debris", "lat": -23.659102066762802, "lon": 94.68627688296154, "alt_km": 850.9025361211261, "timestamp": "2025-12-10T14:53:37.377689+00:00", "meta": {"OBJECT_NAME": "FENGYUN 1C DEB", "OBJECT_ID": "1999-025DDP", "EPOCH": "2025-12-09T13:35:56.277312", "MEAN_MOTION": 14.17713216, "ECCENTRICITY": 0.0135528, "INCLINATION": 98.6166, "RA_OF_ASC_NODE": 89.8546, "ARG_OF_PERICENTER": 77.2482, "MEAN_ANOMALY": 284.3802, "EPHEMERIS_TYPE": 0, "CLASSIFICATION_TYPE": "U", "NORAD_CAT_ID": 33630, "ELEMENT_SET_NO": 999, "REV_AT_EPOCH": 64366, "BSTAR": 0.00061826, "MEAN_MOTION_DOT": 1.337e-05, "MEAN_MOTION_DDOT": 0}, "tle": {"line1": "1 33630U 99025DDP 25343.56662358  .00001337  00000+0  61826-3 0  9997", "line2": "2 33630  98.6166  89.8546 0135528  77.2482 284.3802 14.17713216643662"}}, "geometry": {"type": "Point", "coordinates": [94.68627688296154, -23.659102066762802]}}, {"type": "Feature", "properties": {"norad_id": 33633, "name": "FENGYUN 1C DEB", "group": "fengyun-1c-debris", "lat": 6.046349684746141, "lon": 77.86839274640454, "alt_km": 882.1241060143584, "timestamp": "2025-12-10T14:53:37.377698+00:00", "meta": {"OBJECT_NAME": "FENGYUN 1C DEB", "OBJECT_ID": "1999-025DDS", "EPOCH": "2025-12-09T05:09:41.870880", "MEAN_MOTION": 14.19278753, "ECCENTRICITY": 0.0083508, "INCLINATION": 99.0481, "RA_OF_ASC_NODE": 77.4006, "ARG_OF_PERICENTER": 160.8678, "MEAN_ANOMALY": 228.508, "EPHEMERIS_TYPE": 0, "CLASSIFICATION_TYPE": "U", "NORAD_CAT_ID": 33633, "ELEMENT_SET_NO": 999, "REV_AT_EPOCH": 90661, "BSTAR": 0.003396465, "MEAN_MOTION_DOT": 7.339e-05, "MEAN_MOTION_DDOT": 0}, "tle": {"line1": "1 33633U 99025DDS 25343.21506795  .00007339  00000+0  33965-2 0  9994", "line2": "2 33633  99.0481  77.4006 0083508 160.8678 228.5080 14.19278753906619"}}, "geometry": {"type": "Point", "coordinates": [77.86839274640454, 6.046349684746141]}}, {"type": "Feature", "properties": {"norad_id": 33637, "name": "FENGYUN 1C DEB", "group": "fengyun-1c-debris", "lat": 64.12431545418235, "lon": -132.42915027050043, "alt_km": 719.5029712423702, "timestamp": "2025-12-10T14:53:37.377706+00:00", "meta": {"OBJECT_NAME": "FENGYUN 1C DEB", "OBJECT_ID": "1999-025DDW", "EPOCH": "2025-12-09T09:56:48.020352", "MEAN_MOTION": 14.36708796, "ECCENTRICITY": 0.00831325, "INCLINATION": 98.4929, "RA_OF_ASC_NODE": 28.4392, "ARG_OF_PERICENTER": 161.2491, "MEAN_ANOMALY": 199.1789, "EPHEMERIS_TYPE": 0, "CLASSIFICATION_TYPE": "U", "NORAD_CAT_ID": 33637, "ELEMENT_SET_NO": 999, "REV_AT_EPOCH": 64790, "BSTAR": 0.0018693343, "MEAN_MOTION_DOT": 5.692e-05, "MEAN_MOTION_DDOT": 0}, "tle": {"line1": "1 33637U 99025DDW 25343.41444468  .00005692  00000+0  18693-2 0  9999", "line2": "2 33637  98.4929  28.4392 0083132 161.2491 199.1789 14.36708796647905"}}, "geometry": {"type": "Point", "coordinates": [-132.42915027050043, 64.12431545418235]}}, {"type": "Feature", "properties": {"norad_id": 33638, "name": "FENGYUN 1C DEB", "group": "fengyun-1c-debris", "lat": 42.53976561158718, "lon": -132.2897278516354, "alt_km": 1105.7308606514734, "timestamp": "2025-12-10T14:53:37.377715+00:00", "meta": {"OBJECT_NAME": "FENGYUN 1C DEB", "OBJECT_ID": "1999-025DDX", "EPOCH": "2025-12-06T22:59:54.556512", "MEAN_MOTION": 13.6928665, "ECCENTRICITY": 0.02653124, "INCLINATION": 98.4647, "RA_OF_ASC_NODE": 232.3409, "ARG_OF_PERICENTER": 288.5007, "MEAN_ANOMALY": 68.7482, "EPHEMERIS_TYPE": 0, "CLASSIFICATION_TYPE": "U", "NORAD_CAT_ID": 33638, "ELEMENT_SET_NO": 999, "REV_AT_EPOCH": 60836, "BSTAR": 0.0023450571, "MEAN_MOTION_DOT": 2.567e-05, "MEAN_MOTION_DDOT": 0}, "tle": {"line1": "1 33638U 99025DDX 25340.95827033  .00002567  00000+0  23451-2 0  9995", "line2": "2 33638  98.4647 232.3409 0265312 288.5007  68.7482 13.69286650608369"}}, "geometry": {"type": "Point", "coordinates": [-132.2897278516354, 42.53976561158718]}}, {"type": "Feature", "properties": {"norad_id": 33639, "name": "FENGYUN 1C DEB", "group": "fengyun-1c-debris", "lat": 19.752381028500633, "lon": -101.28223051781075, "alt_km": 782.1180777210975, "timestamp": "2025-12-10T14:53:37.377724+00:00", "meta": {"OBJECT_NAME": "FENGYUN 1C DEB", "OBJECT_ID": "1999-025DDY", "EPOCH": "2025-12-03T23:45:48.189312", "MEAN_MOTION": 14.40248408, "ECCENTRICITY": 0.00493059, "INCLINATION": 98.7136, "RA_OF_ASC_NODE": 68.813, "ARG_OF_PERICENTER": 315.1865, "MEAN_ANOMALY": 44.5345, "EPHEMERIS_TYPE": 0, "CLASSIFICATION_TYPE": "U", "NORAD_CAT_ID": 33639, "ELEMENT_SET_NO": 999, "REV_AT_EPOCH": 60456, "BSTAR": 0.0043899516, "MEAN_MOTION_DOT": 0.00014079, "MEAN_MOTION_DDOT": 0}, "tle": {"line1": "1 33639U 99025DDY 25337.99014108  .00014079  00000+0  43900-2 0  9999", "line2": "2 33639  98.7136  68.8130 0049305 315.1865  44.5345 14.40248408604567"}}, "geometry": {"type": "Point", "coordinates": [-101.28223051781075, 19.752381028500633]}}, {"type": "Feature", "properties": {"norad_id": 33640, "name": "FENGYUN 1C DEB", "group": "fengyun-1c-debris", "lat": -52.4976723301418, "lon": -61.014426981439115, "alt_km": 795.6208561997273, "timestamp": "2025-12-10T14:53:37.377733+00:00", "meta": {"OBJECT_NAME": "FENGYUN 1C DEB", "OBJECT_ID": "1999-025DDZ", "EPOCH": "2025-12-07T19:02:56.918112", "MEAN_MOTION": 14.458694, "ECCENTRICITY": 0.00904679, "INCLINATION": 98.8406, "RA_OF_ASC_NODE": 284.3391, "ARG_OF_PERICENTER": 174.4583, "MEAN_ANOMALY": 185.763, "EPHEMERIS_TYPE": 0, "CLASSIFICATION_TYPE": "U", "NORAD_CAT_ID": 33640, "ELEMENT_SET_NO": 999, "REV_AT_EPOCH": 92271, "BSTAR": 0.00085213272, "MEAN_MOTION_DOT": 3.134e-05, "MEAN_MOTION_DDOT": 0}, "tle": {"line1": "1 33640U 99025DDZ 25341.79371433  .00003134  00000+0  85213-3 0  9995", "line2": "2 33640  98.8406 284.3391 0090467 174.4583 185.7630 14.45869400922713"}}, "geometry": {"type": "Point", "coordinates": [-61.014426981439115, -52.4976723301418]}}, {"type": "Feature", "properties": {"norad_id": 33648, "name": "FENGYUN 1C DEB", "group": "fengyun-1c-debris", "lat": 47.56267563048522, "lon": 173.0305036292524, "alt_km": 815.9304144118141, "timestamp": "2025-12-10T14:53:37.377742+00:00", "meta": {"OBJECT_NAME": "FENGYUN 1C DEB", "OBJECT_ID": "1999-025DEH", "EPOCH": "2025-12-10T05:45:53.278272", "MEAN_MOTION": 14.11773677, "ECCENTRICITY": 0.00687621, "INCLINATION": 98.7194, "RA_OF_ASC_NODE": 342.9982, "ARG_OF_PERICENTER": 181.2725, "MEAN_ANOMALY": 178.8283, "EPHEMERIS_TYPE": 0, "CLASSIFICATION_TYPE": "U", "NORAD_CAT_ID": 33648, "ELEMENT_SET_NO": 999, "REV_AT_EPOCH": 64341, "BSTAR": 0.0001655899, "MEAN_MOTION_DOT": 2.66e-06, "MEAN_MOTION_DDOT": 0}, "tle": {"line1": "1 33648U 99025DEH 25344.24019998  .00000266  00000+0  16559-3 0  9991", "line2": "2 33648  98.7194 342.9982 0068762 181.2725 178.8283 14.11773677643415"}}, "geometry": {"type": "Point", "coordinates": [173.0305036292524, 47.56267563048522]}}]}